{
    "week": 293,
    "satellites": [
        {
            "Name": "GSAT0208 (GALILEO 11)",
            "Line1": "1 41175U 15079B   24320.88726333  .00000044  00000+0  00000+0 0  9997",
            "Line2": "2 41175  55.4961 117.1429 0001425   9.8908 350.0938  1.70474174 55497",
            "SatelliteNumber": "41175",
            "Classification": "U",
            "LaunchYear": "15",
            "LaunchNumber": "079",
            "PieceOfLaunch": "B",
            "EpochYear": "24",
            "EpochDay": 320.88726333,
            "FirstDerivativeMeanMotion": 4.4e-07,
            "SecondDerivativeMeanMotion": "00000+0",
            "BSTAR": "00000+0",
            "SetNumber": "999",
            "Inclination": 55.4961,
            "RAAN": 117.1429,
            "Eccentricity": 0.0001425,
            "ArgumentOfPerigee": 9.8908,
            "MeanAnomaly": 350.0938,
            "MeanMotion": 1.70474174,
            "RevolutionNumber": "5549"
        },
        {
            "Name": "GSAT0211 (GALILEO 14)",
            "Line1": "1 41549U 16030A   24316.31764509 -.00000010  00000+0  00000+0 0  9994",
            "Line2": "2 41549  55.3023 237.7292 0003587 348.5846  11.4222  1.70472903 52738",
            "SatelliteNumber": "41549",
            "Classification": "U",
            "LaunchYear": "16",
            "LaunchNumber": "030",
            "PieceOfLaunch": "A",
            "EpochYear": "24",
            "EpochDay": 316.31764509,
            "FirstDerivativeMeanMotion": -1e-07,
            "SecondDerivativeMeanMotion": "00000+0",
            "BSTAR": "00000+0",
            "SetNumber": "999",
            "Inclination": 55.3023,
            "RAAN": 237.7292,
            "Eccentricity": 0.0003587,
            "ArgumentOfPerigee": 348.5846,
            "MeanAnomaly": 11.4222,
            "MeanMotion": 1.70472903,
            "RevolutionNumber": "5273"
        },
        {
            "Name": "GSAT0210 (GALILEO 13)",
            "Line1": "1 41550U 16030B   24321.26836720 -.00000004  00000+0  00000+0 0  9994",
            "Line2": "2 41550  55.2990 237.5911 0002428 247.6582 112.3500  1.70473142 52799",
            "SatelliteNumber": "41550",
            "Classification": "U",
            "LaunchYear": "16",
            "LaunchNumber": "030",
            "PieceOfLaunch": "B",
            "EpochYear": "24",
            "EpochDay": 321.2683672,
            "FirstDerivativeMeanMotion": -4e-08,
            "SecondDerivativeMeanMotion": "00000+0",
            "BSTAR": "00000+0",
            "SetNumber": "999",
            "Inclination": 55.299,
            "RAAN": 237.5911,
            "Eccentricity": 0.0002428,
            "ArgumentOfPerigee": 247.6582,
            "MeanAnomaly": 112.35,
            "MeanMotion": 1.70473142,
            "RevolutionNumber": "5279"
        },
        {
            "Name": "GSAT0207 (GALILEO 15)",
            "Line1": "1 41859U 16069A   24320.96093109  .00000043  00000+0  00000+0 0  9992",
            "Line2": "2 41859  55.1633 117.1078 0001684 317.2544  42.7138  1.70474248 49760",
            "SatelliteNumber": "41859",
            "Classification": "U",
            "LaunchYear": "16",
            "LaunchNumber": "069",
            "PieceOfLaunch": "A",
            "EpochYear": "24",
            "EpochDay": 320.96093109,
            "FirstDerivativeMeanMotion": 4.3e-07,
            "SecondDerivativeMeanMotion": "00000+0",
            "BSTAR": "00000+0",
            "SetNumber": "999",
            "Inclination": 55.1633,
            "RAAN": 117.1078,
            "Eccentricity": 0.0001684,
            "ArgumentOfPerigee": 317.2544,
            "MeanAnomaly": 42.7138,
            "MeanMotion": 1.70474248,
            "RevolutionNumber": "4976"
        },
        {
            "Name": "GSAT0212 (GALILEO 16)",
            "Line1": "1 41860U 16069B   24320.81506138  .00000044  00000+0  00000+0 0  9990",
            "Line2": "2 41860  55.1617 117.1077 0001988  35.8267 324.1691  1.70474456 49790",
            "SatelliteNumber": "41860",
            "Classification": "U",
            "LaunchYear": "16",
            "LaunchNumber": "069",
            "PieceOfLaunch": "B",
            "EpochYear": "24",
            "EpochDay": 320.81506138,
            "FirstDerivativeMeanMotion": 4.4e-07,
            "SecondDerivativeMeanMotion": "00000+0",
            "BSTAR": "00000+0",
            "SetNumber": "999",
            "Inclination": 55.1617,
            "RAAN": 117.1077,
            "Eccentricity": 0.0001988,
            "ArgumentOfPerigee": 35.8267,
            "MeanAnomaly": 324.1691,
            "MeanMotion": 1.70474456,
            "RevolutionNumber": "4979"
        },
        {
            "Name": "GSAT0213 (GALILEO 17)",
            "Line1": "1 41861U 16069C   24318.83707172  .00000064  00000+0  00000+0 0  9993",
            "Line2": "2 41861  55.1629 117.1697 0001785 265.6122  94.3668  1.70474720 49626",
            "SatelliteNumber": "41861",
            "Classification": "U",
            "LaunchYear": "16",
            "LaunchNumber": "069",
            "PieceOfLaunch": "C",
            "EpochYear": "24",
            "EpochDay": 318.83707172,
            "FirstDerivativeMeanMotion": 6.4e-07,
            "SecondDerivativeMeanMotion": "00000+0",
            "BSTAR": "00000+0",
            "SetNumber": "999",
            "Inclination": 55.1629,
            "RAAN": 117.1697,
            "Eccentricity": 0.0001785,
            "ArgumentOfPerigee": 265.6122,
            "MeanAnomaly": 94.3668,
            "MeanMotion": 1.7047472,
            "RevolutionNumber": "4962"
        },
        {
            "Name": "GSAT0214 (GALILEO 18)",
            "Line1": "1 41862U 16069D   24319.56905381  .00000056  00000+0  00000+0 0  9998",
            "Line2": "2 41862  55.1612 117.1426 0000835 263.9425  96.0409  1.70474508 49762",
            "SatelliteNumber": "41862",
            "Classification": "U",
            "LaunchYear": "16",
            "LaunchNumber": "069",
            "PieceOfLaunch": "D",
            "EpochYear": "24",
            "EpochDay": 319.56905381,
            "FirstDerivativeMeanMotion": 5.6e-07,
            "SecondDerivativeMeanMotion": "00000+0",
            "BSTAR": "00000+0",
            "SetNumber": "999",
            "Inclination": 55.1612,
            "RAAN": 117.1426,
            "Eccentricity": 8.35e-05,
            "ArgumentOfPerigee": 263.9425,
            "MeanAnomaly": 96.0409,
            "MeanMotion": 1.70474508,
            "RevolutionNumber": "4976"
        },
        {
            "Name": "GSAT0215 (GALILEO 19)",
            "Line1": "1 43055U 17079A   24321.23193026 -.00000004  00000+0  00000+0 0  9992",
            "Line2": "2 43055  55.2768 237.4138 0001921 298.2297  61.7850  1.70473689 43135",
            "SatelliteNumber": "43055",
            "Classification": "U",
            "LaunchYear": "17",
            "LaunchNumber": "079",
            "PieceOfLaunch": "A",
            "EpochYear": "24",
            "EpochDay": 321.23193026,
            "FirstDerivativeMeanMotion": -4e-08,
            "SecondDerivativeMeanMotion": "00000+0",
            "BSTAR": "00000+0",
            "SetNumber": "999",
            "Inclination": 55.2768,
            "RAAN": 237.4138,
            "Eccentricity": 0.0001921,
            "ArgumentOfPerigee": 298.2297,
            "MeanAnomaly": 61.785,
            "MeanMotion": 1.70473689,
            "RevolutionNumber": "4313"
        },
        {
            "Name": "GSAT0216 (GALILEO 20)",
            "Line1": "1 43056U 17079B   24316.24422623 -.00000010  00000+0  00000+0 0  9993",
            "Line2": "2 43056  55.2798 237.5509 0003464 296.5942  63.3857  1.70473751 43038",
            "SatelliteNumber": "43056",
            "Classification": "U",
            "LaunchYear": "17",
            "LaunchNumber": "079",
            "PieceOfLaunch": "B",
            "EpochYear": "24",
            "EpochDay": 316.24422623,
            "FirstDerivativeMeanMotion": -1e-07,
            "SecondDerivativeMeanMotion": "00000+0",
            "BSTAR": "00000+0",
            "SetNumber": "999",
            "Inclination": 55.2798,
            "RAAN": 237.5509,
            "Eccentricity": 0.0003464,
            "ArgumentOfPerigee": 296.5942,
            "MeanAnomaly": 63.3857,
            "MeanMotion": 1.70473751,
            "RevolutionNumber": "4303"
        },
        {
            "Name": "GSAT0217 (GALILEO 21)",
            "Line1": "1 43057U 17079C   24319.98428335 -.00000007  00000+0  00000+0 0  9990",
            "Line2": "2 43057  55.2763 237.4465 0003120 317.6965  42.3049  1.70473677 43116",
            "SatelliteNumber": "43057",
            "Classification": "U",
            "LaunchYear": "17",
            "LaunchNumber": "079",
            "PieceOfLaunch": "C",
            "EpochYear": "24",
            "EpochDay": 319.98428335,
            "FirstDerivativeMeanMotion": -7e-08,
            "SecondDerivativeMeanMotion": "00000+0",
            "BSTAR": "00000+0",
            "SetNumber": "999",
            "Inclination": 55.2763,
            "RAAN": 237.4465,
            "Eccentricity": 0.000312,
            "ArgumentOfPerigee": 317.6965,
            "MeanAnomaly": 42.3049,
            "MeanMotion": 1.70473677,
            "RevolutionNumber": "4311"
        }
    ]
}